*******************************************************************************
JPL/HORIZONS               Catalina (C/2013 US10)          2023-May-10 13:40:26
Rec #:90004184 (+COV) Soln.date: 2021-Apr-15_23:32:42   # obs: 4396 (2013-2017)
 
IAU76/J2000 helio. ecliptic osc. elements (au, days, deg., period=Julian yrs):
 
  EPOCH=  2457349.5 ! 2015-Nov-23.0000000 (TDB)    RMSW= n.a.
   EC= 1.000280111752132   QR= .8229694432560084   TP= 2457342.2216403401
   OM= 186.1445801306016   W= 340.3587540701534    IN= 148.8782970590471
   A= -2938.003982310757   MA= 4.5046288727995E-5  ADIST= 9.999999E99
   PER= 9.999999E99        N= 6.189E-6             ANGMOM= .022070832
   DAN= .84763             DDN= 28.42121           L= 203.1339534
   B= -10.0048288          MOID= .13859899         TP= 2015-Nov-15.7216403401
 
Comet physical (GM= km^3/s^2; RAD= km):
   GM= n.a.                RAD= n.a.
   M1=  8.4      M2=  n.a.     k1=  6.5    k2= n.a.     PHCOF= n.a.
 
Comet non-gravitational force model (AMRAT=m^2/kg;A1-A3=au/d^2;DT=days;R0=au):
   AMRAT=  0.                                      DT=  0.
   A1= 7.573968172073E-9   A2= 6.249690894037E-11  A3= 1.621151342988E-10
 Standard model:
   ALN=  .1112620426   NK=  4.6142   NM=  2.15     NN=  5.093    R0=  2.808
 
COMET comments 
1: soln ref.= JPL#84, data arc: 2013-08-14 to 2017-11-16
2: k1=6.5;
*******************************************************************************


*******************************************************************************
Ephemeris / WWW_USER Wed May 10 13:40:27 2023 Pasadena, USA      / Horizons    
*******************************************************************************
Target body name: Catalina (C/2013 US10)          {source: JPL#84}
Center body name: Earth (399)                     {source: DE441}
Center-site name: GEOCENTRIC
*******************************************************************************
Start time      : A.D. 2015-Oct-01 00:00:00.0000 UT      
Stop  time      : A.D. 2015-Dec-31 00:00:00.0000 UT      
Step-size       : 1440 minutes
*******************************************************************************
Target pole/equ : undefined
Target radii    : undefined                                                    
Center geodetic : 0.0, 0.0, -6378.137             {E-lon(deg),Lat(deg),Alt(km)}
Center cylindric: 0.0, 0.0, 0.0                   {E-lon(deg),Dxy(km),Dz(km)}
Center pole/equ : ITRF93                          {East-longitude positive}
Center radii    : 6378.137, 6378.137, 6356.752 km {Equator_a, b, pole_c}       
Target primary  : Sun
Vis. interferer : MOON (R_eq= 1737.400) km        {source: DE441}
Rel. light bend : Sun                             {source: DE441}
Rel. lght bnd GM: 1.3271E+11 km^3/s^2                                          
Small-body perts: Yes                             {source: SB441-N16}
Atmos refraction: NO (AIRLESS)
RA format       : HMS
Time format     : CAL 
Calendar mode   : Mixed Julian/Gregorian
EOP file        : eop.230508.p230801                                           
EOP coverage    : DATA-BASED 1962-JAN-20 TO 2023-MAY-08. PREDICTS-> 2023-JUL-31
Units conversion: 1 au= 149597870.700 km, c= 299792.458 km/s, 1 day= 86400.0 s 
Table cut-offs 1: Elevation (-90.0deg=NO ),Airmass (>38.000=NO), Daylight (NO )
Table cut-offs 2: Solar elongation (  0.0,180.0=NO ),Local Hour Angle( 0.0=NO )
Table cut-offs 3: RA/DEC angular rate (     0.0=NO )                           
*******************************************************************************
Initial IAU76/J2000 heliocentric ecliptic osculating elements (au, days, deg.):
  EPOCH=  2457349.5 ! 2015-Nov-23.0000000 (TDB)    RMSW= n.a.                  
   EC= 1.000280111752132   QR= .8229694432560084   TP= 2457342.2216403401      
   OM= 186.1445801306016   W= 340.3587540701534    IN= 148.8782970590471       
  Equivalent ICRF heliocentric cartesian coordinates (au, au/d):
   X=-8.166013266176956E-01  Y=-1.331244947231663E-01  Z=-1.082949725329460E-01
  VX=-8.295083187819727E-03 VY= 1.435125300270172E-02 VZ= 2.084664290722899E-02
Comet physical (GM= km^3/s^2; RAD= km):                                        
   GM= n.a.                RAD= n.a.                                           
   M1=  8.4      M2=  n.a.     k1=  6.5    k2= n.a.     PHCOF= n.a.            
Comet non-gravitational force model (AMRAT=m^2/kg;A1-A3=au/d^2;DT=days;R0=au): 
   AMRAT=  0.                                      DT=  0.                     
   A1= 7.573968172073E-9   A2= 6.249690894037E-11  A3= 1.621151342988E-10      
 Standard model:                                                               
   ALN=  .1112620426   NK=  4.6142   NM=  2.15     NN=  5.093    R0=  2.808    
***********************************************************************************************************************************************************************************************************
 Date__(UT)__HR:MN     R.A._____(ICRF)_____DEC    T-mag   N-mag                r        rdot             delta      deldot     S-O-T /r     S-T-O  Sky_motion  Sky_mot_PA  RelVel-ANG  Lun_Sky_Brt  sky_SNR
***********************************************************************************************************************************************************************************************************
$$SOE
 2015-Oct-25 00:00     14 28 22.10 -28 05 49.5    9.451    n.a.   0.918615462846 -14.1832826  1.81181737787507   5.6198254   17.9759 /T   19.5304   1.0165528   350.10821   14.169167         n.a.     n.a.
 2015-Oct-26 00:00     14 28 03.26 -27 41 48.2    9.430    n.a.   0.910564700621 -13.6932378  1.81480021388379   4.7067084   16.9001 /T   18.5183   1.0152234   350.10957   11.935590         n.a.     n.a.
 2015-Oct-27 00:00     14 27 44.51 -27 17 48.3    9.408    n.a.   0.902802235888 -13.1848232  1.81725095193807   3.7772714   15.8469 /T   17.5074   1.0146016   350.11501   9.6215638         n.a.     n.a.
 2015-Oct-28 00:00     14 27 25.85 -26 53 48.7    9.387    n.a.   0.895338690116 -12.6580138  1.81916027271603   2.8318897   14.8209 /T   16.5041   1.0146639   350.12610   7.2359092         n.a.     n.a.
 2015-Oct-29 00:00     14 27 07.27 -26 29 48.5    9.366    n.a.   0.888184677425 -12.1128617  1.82051908369020   1.8709816   13.8285 /T   15.5166   1.0153892   350.14416   4.7889290         n.a.     n.a.
 2015-Oct-30 00:00     14 26 48.78 -26 05 46.8    9.345    n.a.   0.881350758219 -11.5495023  1.82131855764070   0.8950551   12.8774 /T   14.5552   1.0167592   350.17028   2.2923813         n.a.     n.a.
 2015-Oct-31 00:00     14 26 30.38 -25 41 42.5    9.325    n.a.   0.874847389242 -10.9681608  1.82155019524307  -0.0952578   11.9779 /T   13.6330   1.0187588   350.20537   -0.240649         n.a.     n.a.
 2015-Nov-01 00:00     14 26 12.07 -25 17 34.7    9.304    n.a.   0.868684870299 -10.3691570  1.82120590225118  -1.0991853   11.1425 /T   12.7665   1.0213753   350.25022   -2.796013         n.a.     n.a.
 2015-Nov-02 00:00     14 25 53.87 -24 53 22.6    9.284    n.a.   0.862873288032  -9.7529104  1.82027807011769  -2.1158183   10.3874 /L   11.9759   1.0245979   350.30558   -5.358876         n.a.     n.a.
 2015-Nov-03 00:00     14 25 35.77 -24 29 05.2    9.265    n.a.   0.857422457180  -9.1199443  1.81875965202560  -3.1441228    9.7316 /L   11.2859   1.0284175   350.37214   -7.914180         n.a.     n.a.
 2015-Nov-04 00:00     14 25 17.80 -24 04 41.6    9.245    n.a.   0.852341859897  -8.4708880  1.81664423091595  -4.1829542    9.1969 /L   10.7244   1.0328263   350.45058   -10.44713         n.a.     n.a.
 2015-Nov-05 00:00     14 24 59.96 -23 40 11.0    9.226    n.a.   0.847640583791  -7.8064790  1.81392607956749  -5.2310698    8.8060 /L   10.3207   1.0378184   350.54148   -12.94362         n.a.     n.a.
 2015-Nov-06 00:00     14 24 42.26 -23 15 32.5    9.208    n.a.   0.843327259412  -7.1275632  1.81060021438285  -6.2871383    8.5793 /L   10.1018   1.0433895   350.64539   -15.39065         n.a.     n.a.
 2015-Nov-07 00:00     14 24 24.73 -22 50 45.2    9.190    n.a.   0.839409998035  -6.4350930  1.80666244473122  -7.3497458    8.5305 /L   10.0871   1.0495374   350.76272   -17.77662         n.a.     n.a.
 2015-Nov-08 00:00     14 24 07.38 -22 25 48.2    9.173    n.a.   0.835896330624  -5.7301252  1.80210941919472  -8.4174007    8.6634 /L   10.2837   1.0562625   350.89379   -20.09148         n.a.     n.a.
 2015-Nov-09 00:00     14 23 50.23 -22 00 40.6    9.156    n.a.   0.832793148929  -5.0138161  1.79693866934938  -9.4885376    8.9705 /L   10.6853   1.0635681   351.03878   -22.32687         n.a.     n.a.
 2015-Nov-10 00:00     14 23 33.29 -21 35 21.7    9.140    n.a.   0.830106649673  -4.2874153  1.79114865100768 -10.5615222    9.4356 /L   11.2742   1.0714602   351.19774   -24.47613         n.a.     n.a.
 2015-Nov-11 00:00     14 23 16.59 -21 09 50.3    9.125    n.a.   0.827842282803  -3.5522580  1.78473878223888 -11.6346580   10.0374 /L   12.0258   1.0799484   351.37059   -26.53423         n.a.     n.a.
 2015-Nov-12 00:00     14 23 00.15 -20 44 05.7    9.110    n.a.   0.826004704751  -2.8097554  1.77770947700885 -12.7061947   10.7536 /L   12.9137   1.0890454   351.55710   -28.49766         n.a.     n.a.
 2015-Nov-13 00:00     14 22 43.98 -20 18 07.0    9.096    n.a.   0.824597737569  -2.0613837  1.77006217299852 -13.7743398   11.5635 /L   13.9128   1.0987677   351.75695   -30.36427         n.a.     n.a.
 2015-Nov-14 00:00     14 22 28.12 -19 51 53.1    9.082    n.a.   0.823624334761  -1.3086723  1.76179935212598 -14.8372725   12.4494 /L   15.0008   1.1091355   351.96969   -32.13312         n.a.     n.a.
 2015-Nov-15 00:00     14 22 12.57 -19 25 23.1    9.069    n.a.   0.823086554478  -0.5531900  1.75292455252320 -15.8931591   13.3967 /L   16.1591   1.1201725   352.19475   -33.80431         n.a.     n.a.
 2015-Nov-16 00:00     14 21 57.37 -18 58 35.9    9.057    n.a.   0.822985540628   0.2034688  1.74344237112995 -16.9401700   14.3940 /L   17.3721   1.1319065   352.43147   -35.37878         n.a.     n.a.
 2015-Nov-17 00:00     14 21 42.52 -18 31 30.6    9.046    n.a.   0.823321512311   0.9596987  1.73335845649781 -17.9764966   15.4319 /L   18.6271   1.1443693   352.67908   -36.85814         n.a.     n.a.
